{
  "type": "FeatureCollection",
  "generator": "overpass-turbo",
  "copyright": "The data included in this document is from www.openstreetmap.org. The data is made available under ODbL.",
  "timestamp": "2026-03-12T18:15:16Z",
  "features": [
    {
      "type": "Feature",
      "properties": {
        "@id": "way/168247376",
        "highway": "raceway",
        "name": "Moscow Raceway",
        "oneway": "yes",
        "sport": "motor"
      },
      "geometry": {
        "type": "LineString",
        "coordinates": [
          [
            36.2593009,
            55.9971036
          ],
          [
            36.26093,
            55.9965571
          ],
          [
            36.2614793,
            55.9963729
          ],
          [
            36.2626007,
            55.9959967
          ],
          [
            36.2677077,
            55.9942273
          ],
          [
            36.2697618,
            55.9935199
          ],
          [
            36.2698817,
            55.9934869
          ],
          [
            36.269932,
            55.9934795
          ],
          [
            36.2699876,
            55.9934782
          ],
          [
            36.2700407,
            55.9934845
          ],
          [
            36.2700652,
            55.9934891
          ],
          [
            36.2700844,
            55.9934957
          ],
          [
            36.2701095,
            55.9935103
          ],
          [
            36.2701326,
            55.9935256
          ],
          [
            36.2701516,
            55.9935428
          ],
          [
            36.2701673,
            55.99356
          ],
          [
            36.2701856,
            55.9935873
          ],
          [
            36.2701972,
            55.9936153
          ],
          [
            36.2702522,
            55.9937981
          ],
          [
            36.270515,
            55.9958746
          ],
          [
            36.2707403,
            55.9975455
          ],
          [
            36.2706638,
            55.9976982
          ],
          [
            36.2705373,
            55.997797
          ],
          [
            36.270425,
            55.9978435
          ],
          [
            36.2703247,
            55.9978906
          ],
          [
            36.2700241,
            55.9979921
          ],
          [
            36.2686207,
            55.9984613
          ],
          [
            36.268072,
            55.9985994
          ],
          [
            36.2680372,
            55.9986037
          ],
          [
            36.2680018,
            55.998605
          ],
          [
            36.2679653,
            55.9986061
          ],
          [
            36.2679288,
            55.9986059
          ],
          [
            36.2678889,
            55.9986036
          ],
          [
            36.2678495,
            55.9985999
          ],
          [
            36.267816,
            55.9985941
          ],
          [
            36.2677872,
            55.9985868
          ],
          [
            36.2675301,
            55.9984811
          ],
          [
            36.2672811,
            55.9983678
          ],
          [
            36.2672435,
            55.9983458
          ],
          [
            36.2672271,
            55.9983348
          ],
          [
            36.2672107,
            55.9983231
          ],
          [
            36.2671967,
            55.9983122
          ],
          [
            36.267185,
            55.9983007
          ],
          [
            36.2671739,
            55.9982889
          ],
          [
            36.267164,
            55.9982765
          ],
          [
            36.2671538,
            55.9982627
          ],
          [
            36.2671459,
            55.9982482
          ],
          [
            36.2671389,
            55.9982338
          ],
          [
            36.2671331,
            55.9982196
          ],
          [
            36.2671262,
            55.9981954
          ],
          [
            36.2671231,
            55.9981788
          ],
          [
            36.2671224,
            55.9981621
          ],
          [
            36.2672764,
            55.9969895
          ],
          [
            36.2672749,
            55.9968969
          ],
          [
            36.267264,
            55.9968035
          ],
          [
            36.2672432,
            55.9967281
          ],
          [
            36.2672052,
            55.996624
          ],
          [
            36.2671221,
            55.9964832
          ],
          [
            36.2670785,
            55.9964121
          ],
          [
            36.2670242,
            55.9963433
          ],
          [
            36.2669411,
            55.9962484
          ],
          [
            36.2668908,
            55.9962036
          ],
          [
            36.2668298,
            55.9961595
          ],
          [
            36.2666661,
            55.9960538
          ],
          [
            36.2665617,
            55.9959839
          ],
          [
            36.2665069,
            55.9959486
          ],
          [
            36.26647,
            55.9959321
          ],
          [
            36.2664252,
            55.9959179
          ],
          [
            36.2663607,
            55.9959014
          ],
          [
            36.2662908,
            55.9958864
          ],
          [
            36.2662196,
            55.9958715
          ],
          [
            36.2661404,
            55.9958595
          ],
          [
            36.2660613,
            55.9958549
          ],
          [
            36.2659768,
            55.9958534
          ],
          [
            36.2658131,
            55.9958563
          ],
          [
            36.2656904,
            55.9958663
          ],
          [
            36.265565,
            55.9958778
          ],
          [
            36.2654449,
            55.9958954
          ],
          [
            36.2653329,
            55.9959174
          ],
          [
            36.2652275,
            55.9959588
          ],
          [
            36.265149,
            55.9960062
          ],
          [
            36.2651007,
            55.996062
          ],
          [
            36.2650739,
            55.9961209
          ],
          [
            36.2650688,
            55.9961862
          ],
          [
            36.2650798,
            55.9962485
          ],
          [
            36.2651031,
            55.9963027
          ],
          [
            36.2651425,
            55.9963538
          ],
          [
            36.2655362,
            55.9966204
          ],
          [
            36.2656414,
            55.9967042
          ],
          [
            36.2659953,
            55.9970952
          ],
          [
            36.2660452,
            55.9971557
          ],
          [
            36.2660683,
            55.9972163
          ],
          [
            36.2660663,
            55.9972829
          ],
          [
            36.2660428,
            55.9973495
          ],
          [
            36.2660019,
            55.9973959
          ],
          [
            36.2659449,
            55.9974394
          ],
          [
            36.2658818,
            55.9974777
          ],
          [
            36.2657972,
            55.9975116
          ],
          [
            36.2657057,
            55.9975312
          ],
          [
            36.2656088,
            55.9975492
          ],
          [
            36.2654169,
            55.9975644
          ],
          [
            36.2652142,
            55.9975706
          ],
          [
            36.265127,
            55.9975672
          ],
          [
            36.2650371,
            55.9975504
          ],
          [
            36.2647915,
            55.9974712
          ],
          [
            36.2640907,
            55.9972462
          ],
          [
            36.2639218,
            55.9972135
          ],
          [
            36.2637548,
            55.9972115
          ],
          [
            36.2624246,
            55.997348
          ],
          [
            36.2621465,
            55.9973558
          ],
          [
            36.261829,
            55.9973367
          ],
          [
            36.2609273,
            55.9972969
          ],
          [
            36.2608298,
            55.9973017
          ],
          [
            36.2607324,
            55.9973087
          ],
          [
            36.2606419,
            55.9973229
          ],
          [
            36.2605966,
            55.9973319
          ],
          [
            36.2605594,
            55.9973438
          ],
          [
            36.2596916,
            55.9977834
          ],
          [
            36.2588703,
            55.9982091
          ],
          [
            36.2577431,
            55.9988134
          ],
          [
            36.2573185,
            55.9990218
          ],
          [
            36.2572215,
            55.9990578
          ],
          [
            36.2571712,
            55.9990636
          ],
          [
            36.2571335,
            55.9990643
          ],
          [
            36.2563431,
            55.9990783
          ],
          [
            36.2563119,
            55.9990813
          ],
          [
            36.2562834,
            55.9990861
          ],
          [
            36.2562264,
            55.9990976
          ],
          [
            36.2561656,
            55.9991117
          ],
          [
            36.2561371,
            55.9991202
          ],
          [
            36.2561141,
            55.9991302
          ],
          [
            36.2560972,
            55.9991398
          ],
          [
            36.2560856,
            55.9991516
          ],
          [
            36.2560707,
            55.9991831
          ],
          [
            36.2559512,
            55.9996588
          ],
          [
            36.2558892,
            55.9997492
          ],
          [
            36.2557896,
            55.9998159
          ],
          [
            36.2556621,
            55.9998703
          ],
          [
            36.2555838,
            55.9998886
          ],
          [
            36.2555183,
            55.9998945
          ],
          [
            36.2554457,
            55.9998945
          ],
          [
            36.2553698,
            55.9998864
          ],
          [
            36.2543173,
            55.9996441
          ],
          [
            36.2534858,
            55.9994526
          ],
          [
            36.2533402,
            55.9993915
          ],
          [
            36.2532399,
            55.9993192
          ],
          [
            36.2532004,
            55.999254
          ],
          [
            36.2532037,
            55.9991691
          ],
          [
            36.253686,
            55.9984729
          ],
          [
            36.2537464,
            55.9983389
          ],
          [
            36.2537726,
            55.9982807
          ],
          [
            36.2537672,
            55.9981853
          ],
          [
            36.2537164,
            55.9980821
          ],
          [
            36.2535681,
            55.997977
          ],
          [
            36.253366,
            55.9978861
          ],
          [
            36.2520519,
            55.9975473
          ],
          [
            36.2519377,
            55.9975031
          ],
          [
            36.2518631,
            55.9974307
          ],
          [
            36.2518364,
            55.9973508
          ],
          [
            36.2518682,
            55.9972658
          ],
          [
            36.251935,
            55.9972053
          ],
          [
            36.2520484,
            55.9971617
          ],
          [
            36.254794,
            55.9968491
          ],
          [
            36.2549605,
            55.9968582
          ],
          [
            36.2551093,
            55.9968995
          ],
          [
            36.2552438,
            55.9969549
          ],
          [
            36.2553572,
            55.9970421
          ],
          [
            36.2553833,
            55.9971552
          ],
          [
            36.255351,
            55.9972439
          ],
          [
            36.2550224,
            55.9978803
          ],
          [
            36.2550492,
            55.9980157
          ],
          [
            36.2551239,
            55.9981211
          ],
          [
            36.2552462,
            55.9982057
          ],
          [
            36.2553246,
            55.9982349
          ],
          [
            36.2554161,
            55.998257
          ],
          [
            36.2555125,
            55.9982693
          ],
          [
            36.255601,
            55.9982743
          ],
          [
            36.2556964,
            55.998277
          ],
          [
            36.2557487,
            55.998277
          ],
          [
            36.2557948,
            55.9982708
          ],
          [
            36.257358,
            55.9977553
          ],
          [
            36.2588577,
            55.9972523
          ],
          [
            36.2593009,
            55.9971036
          ]
        ]
      },
      "id": "way/168247376"
    }
  ]
}